{
    "links": {
        "self": "http://www.neowsapp.com/rest/v1/neo/3553282?api_key=iIulBulltgU6a56xZRHN4H3l9WmuAYTsLGpBGhQ2"
    },
    "id": "3553282",
    "neo_reference_id": "3553282",
    "name": "(2010 XB25)",
    "designation": "2010 XB25",
    "nasa_jpl_url": "http://ssd.jpl.nasa.gov/sbdb.cgi?sstr=3553282",
    "absolute_magnitude_h": 24.3,
    "estimated_diameter": {
        "kilometers": {
            "estimated_diameter_min": 0.0366906138,
            "estimated_diameter_max": 0.0820427065
        },
        "meters": {
            "estimated_diameter_min": 36.6906137531,
            "estimated_diameter_max": 82.0427064882
        },
        "miles": {
            "estimated_diameter_min": 0.0227984834,
            "estimated_diameter_max": 0.0509789586
        },
        "feet": {
            "estimated_diameter_min": 120.3760332259,
            "estimated_diameter_max": 269.1689931548
        }
    },
    "is_potentially_hazardous_asteroid": false,
    "close_approach_data": [
        {
            "close_approach_date": "1908-04-22",
            "close_approach_date_full": "1908-Apr-22 15:44",
            "epoch_date_close_approach": -1946880960000,
            "relative_velocity": {
                "kilometers_per_second": "17.2094556583",
                "kilometers_per_hour": "61954.0403698156",
                "miles_per_hour": "38495.8313620112"
            },
            "miss_distance": {
                "astronomical": "0.2156838272",
                "lunar": "83.9010087808",
                "kilometers": "32265841.142568064",
                "miles": "20049063.9985407232"
            },
            "orbiting_body": "Earth"
        },
        {
            "close_approach_date": "2010-12-18",
            "close_approach_date_full": "2010-Dec-18 10:44",
            "epoch_date_close_approach": 1292669040000,
            "relative_velocity": {
                "kilometers_per_second": "12.170323193",
                "kilometers_per_hour": "43813.1634948022",
                "miles_per_hour": "27223.795950423"
            },
            "miss_distance": {
                "astronomical": "0.0494110873",
                "lunar": "19.2209129597",
                "kilometers": "7391793.414464051",
                "miles": "4593047.4453078638"
            },
            "orbiting_body": "Earth"
        },
        {
            "close_approach_date": "2141-11-26",
            "close_approach_date_full": "2141-Nov-26 01:52",
            "epoch_date_close_approach": 5424717120000,
            "relative_velocity": {
                "kilometers_per_second": "23.4917910309",
                "kilometers_per_hour": "84570.4477112569",
                "miles_per_hour": "52548.7873570307"
            },
            "miss_distance": {
                "astronomical": "0.3754910815",
                "lunar": "146.0660307035",
                "kilometers": "56172665.996396405",
                "miles": "34904076.126644189"
            },
            "orbiting_body": "Earth"
        }
    ],
    "orbital_data": {
        "orbit_id": "9",
        "orbit_determination_date": "2017-04-06 08:55:17",
        "first_observation_date": "2010-12-08",
        "last_observation_date": "2010-12-15",
        "data_arc_in_days": 7,
        "observations_used": 39,
        "orbit_uncertainty": "8",
        "minimum_orbit_intersection": ".0446924",
        "jupiter_tisserand_invariant": "3.938",
        "epoch_osculation": "2455539.5",
        "eccentricity": ".516445299268957",
        "semi_major_axis": "1.760416391757408",
        "inclination": "9.679967449910485",
        "ascending_node_longitude": "250.5028008725969",
        "orbital_period": "853.142412124453",
        "perihelion_distance": ".8512576214782759",
        "perihelion_argument": "250.286057037731",
        "aphelion_distance": "2.66957516203654",
        "perihelion_time": "2455589.105024838443",
        "mean_anomaly": "339.0681969527563",
        "mean_motion": ".4219694096599252",
        "equinox": "J2000",
        "orbit_class": {
            "orbit_class_type": "APO",
            "orbit_class_description": "Near-Earth asteroid orbits which cross the Earth’s orbit similar to that of 1862 Apollo",
            "orbit_class_range": "a (semi-major axis) > 1.0 AU; q (perihelion) < 1.017 AU"
        }
    },
    "is_sentry_object": false
}